NORAD_CAT_ID,OBJECT_NAME,OBJECT_TYPE,EPOCH,MEAN_MOTION,ECCENTRICITY,INCLINATION,RA_OF_ASC_NODE,ARG_OF_PERICENTER,MEAN_ANOMALY,BSTAR,MEAN_MOTION_DOT,MEAN_MOTION_DDOT,TLE_LINE0,TLE_LINE1,TLE_LINE2,SEMIMAJOR_AXIS,PERIOD,APOGEE,PERIGEE,DECAYED
55965.0,STARLINK-5894,PAYLOAD,2024-07-25 17:01:09,14.98332541,0.0003114,70.0003,316.9136,267.6798,92.4005,6.5811e-05,6.92e-06,0.0,0 STARLINK-5894,1 55965U 23037BD  24207.70913526  .00000692  00000-0  65811-4 0  9995,2 55965  70.0003 316.9136 0003114 267.6798  92.4005 14.98332541 75805,6950.185,96.107,574.214,569.886,0.0
55965.0,STARLINK-5894,PAYLOAD,2024-07-26 10:38:38,14.98331906,0.0002954,70.0002,315.0609,268.044,92.0381,4.3273e-05,4.23e-06,0.0,0 STARLINK-5894,1 55965U 23037BD  24208.44349549  .00000423  00000-0  43273-4 0  9995,2 55965  70.0002 315.0609 0002954 268.0440  92.0381 14.98331906 76256,6950.187,96.107,574.105,569.999,0.0
55965.0,STARLINK-5894,PAYLOAD,2024-07-26 17:03:09,14.98337585,0.0002861,70.0003,314.3881,269.5868,90.4964,9.5009e-05,1.041e-05,0.0,0 STARLINK-5894,1 55965U 23037BD  24208.71052969  .00001041  00000-0  95009-4 0  9993,2 55965  70.0003 314.3881 0002861 269.5868  90.4964 14.98337585 76290,6950.169,96.107,574.023,570.046,0.0
55965.0,STARLINK-5894,PAYLOAD,2024-07-27 10:40:39,14.98327548,0.0002672,70.0011,312.537,268.7934,91.2919,-4.0675e-05,-5.78e-06,0.0,0 STARLINK-5894,1 55965U 23037BD  24209.44489947 -.00000578  00000-0 -40675-4 0  9999,2 55965  70.0011 312.5370 0002672 268.7934  91.2919 14.98327548 76407,6950.2,96.107,573.923,570.208,0.0
55965.0,STARLINK-5894,PAYLOAD,2024-07-27 17:05:11,14.98323931,0.0002672,70.002,311.8663,264.0001,96.0853,-7.3362e-06,-1.8e-06,0.0,0 STARLINK-5894,1 55965U 23037BD  24209.71194130 -.00000180  00000-0 -73362-5 0  9995,2 55965  70.0020 311.8663 0002672 264.0001  96.0853 14.98323931 76107,6950.212,96.107,573.934,570.22,0.0
55965.0,STARLINK-5894,PAYLOAD,2024-07-28 12:18:47,14.98334399,0.0002867,70.0007,309.843,271.3841,88.6989,4.1603e-05,4.04e-06,0.0,0 STARLINK-5894,1 55965U 23037BD  24210.51305152  .00000404  00000-0  41603-4 0  9992,2 55965  70.0007 309.8430 0002867 271.3841  88.6989 14.98334399 76567,6950.179,96.107,574.037,570.052,0.0
55965.0,STARLINK-5894,PAYLOAD,2024-07-28 17:07:12,14.98308705,0.0003387,70.001,309.3388,278.894,81.1835,0.00056959,6.706e-05,0.0,0 STARLINK-5894,1 55965U 23037BD  24210.71333507  .00006706  00000-0  56959-3 0  9999,2 55965  70.0010 309.3388 0003387 278.8940  81.1835 14.98308705 76591,6950.259,96.108,574.478,569.77,0.0
55965.0,STARLINK-5894,PAYLOAD,2024-07-29 12:20:48,14.98325806,0.0002385,70.0018,307.32,255.3636,104.7259,7.2467e-05,7.72e-06,0.0,0 STARLINK-5894,1 55965U 23037BD  24211.51445486  .00000772  00000-0  72467-4 0  9998,2 55965  70.0018 307.3200 0002385 255.3636 104.7259 14.98325806 76716,6950.206,96.107,573.728,570.413,0.0
55965.0,STARLINK-5894,PAYLOAD,2024-07-30 12:22:49,14.98333084,0.0002922,70.0007,304.7955,260.8167,99.2662,-3.8228e-05,-5.49e-06,0.0,0 STARLINK-5894,1 55965U 23037BD  24212.51585307 -.00000549  00000-0 -38228-4 0  9997,2 55965  70.0007 304.7955 0002922 260.8167  99.2662 14.98333084 76868,6950.183,96.107,574.079,570.018,0.0
55965.0,STARLINK-5894,PAYLOAD,2024-07-30 15:35:05,14.98334966,0.00029,70.0004,304.4583,262.9708,97.1121,-1.9227e-05,-3.22e-06,0.0,0 STARLINK-5894,1 55965U 23037BD  24212.64937113 -.00000322  00000-0 -19227-4 0  9994,2 55965  70.0004 304.4583 0002900 262.9708  97.1121 14.98334966 76541,6950.178,96.107,574.058,570.027,0.0
55965.0,STARLINK-5894,PAYLOAD,2024-07-31 12:24:51,14.98324568,0.0002908,69.9999,302.2688,268.8565,91.2261,-8.2585e-06,-1.92e-06,0.0,0 STARLINK-5894,1 55965U 23037BD  24213.51725853 -.00000192  00000-0 -82585-5 0  9990,2 55965  69.9999 302.2688 0002908 268.8565  91.2261 14.98324568 77017,6950.21,96.107,574.096,570.054,0.0
55965.0,STARLINK-5894,PAYLOAD,2024-07-31 14:00:59,14.98325224,0.0003029,70.0,302.1016,271.9834,88.0978,-2.7709e-05,-4.24e-06,0.0,0 STARLINK-5894,1 55965U 23037BD  24213.58401894 -.00000424  00000-0 -27709-4 0  9997,2 55965  70.0000 302.1016 0003029 271.9834  88.0978 14.98325224 76687,6950.208,96.107,574.178,569.967,0.0
55965.0,STARLINK-5894,PAYLOAD,2024-07-31 15:37:07,14.98326153,0.0003027,70.0001,301.9335,272.1267,87.9546,-1.4355e-05,-2.64e-06,0.0,0 STARLINK-5894,1 55965U 23037BD  24213.65077819 -.00000264  00000-0 -14355-4 0  9996,2 55965  70.0001 301.9335 0003027 272.1267  87.9546 14.98326153 76692,6950.205,96.107,574.174,569.966,0.0
55965.0,STARLINK-5894,PAYLOAD,2024-08-01 12:26:51,14.98337593,0.0002952,70.0003,299.7447,270.0934,89.9887,0.00014307,1.615e-05,0.0,0 STARLINK-5894,1 55965U 23037BD  24214.51864659  .00001615  00000-0  14307-3 0  9993,2 55965  70.0003 299.7447 0002952 270.0934  89.9887 14.98337593 77169,6950.169,96.107,574.086,569.983,0.0
55965.0,STARLINK-5894,PAYLOAD,2024-08-02 12:28:52,14.98324046,0.0002803,70.0003,297.2197,267.8145,92.2693,2.2546e-05,1.76e-06,0.0,0 STARLINK-5894,1 55965U 23037BD  24215.52005760  .00000176  00000-0  22546-4 0  9991,2 55965  70.0003 297.2197 0002803 267.8145  92.2693 14.98324046 77315,6950.211,96.107,574.024,570.128,0.0
55965.0,STARLINK-5894,PAYLOAD,2024-08-02 14:05:01,14.98323873,0.0002757,70.0002,297.0515,265.6364,94.448,1.242e-05,5.5e-07,0.0,0 STARLINK-5894,1 55965U 23037BD  24215.58681816  .00000055  00000-0  12420-4 0  9995,2 55965  70.0002 297.0515 0002757 265.6364  94.4480 14.98323873 76980,6950.212,96.107,573.993,570.161,0.0
55965.0,STARLINK-5894,PAYLOAD,2024-08-02 15:41:09,14.9832418,0.0002783,70.0003,296.8832,267.2887,92.7953,5.3745e-05,5.48e-06,0.0,0 STARLINK-5894,1 55965U 23037BD  24215.65357723  .00000548  00000-0  53745-4 0  9992,2 55965  70.0003 296.8832 0002783 267.2887  92.7953 14.98324180 76996,6950.211,96.107,574.01,570.142,0.0
55965.0,STARLINK-5894,PAYLOAD,2024-08-03 04:30:13,14.98334828,0.0003013,70.0003,295.5366,276.3669,83.7147,-3.9e-05,-5.58e-06,0.0,0 STARLINK-5894,1 55965U 23037BD  24216.18765327 -.00000558  00000-0 -39000-4 0  9995,2 55965  70.0003 295.5366 0003013 276.3669  83.7147 14.98334828 77413,6950.178,96.107,574.137,569.949,0.0
55965.0,STARLINK-5894,PAYLOAD,2024-08-03 14:07:01,14.98338351,0.0002968,70.0,294.5265,271.4767,88.6052,-3.0782e-05,-4.6e-06,0.0,0 STARLINK-5894,1 55965U 23037BD  24216.58820896 -.00000460  00000-0 -30782-4 0  9992,2 55965  70.0000 294.5265 0002968 271.4767  88.6052 14.98338351 77133,6950.167,96.106,574.095,569.969,0.0
55965.0,STARLINK-5894,PAYLOAD,2024-08-03 22:07:41,14.98339459,0.0002902,70.0003,293.6856,268.9464,91.1362,-0.00014924,-1.874e-05,0.0,0 STARLINK-5894,1 55965U 23037BD  24216.92200931 -.00001874  00000-0 -14924-3 0  9991,2 55965  70.0003 293.6856 0002902 268.9464  91.1362 14.98339459 77183,6950.164,96.106,574.046,570.012,0.0
55965.0,STARLINK-5894,PAYLOAD,2024-08-04 12:32:54,14.98327591,0.000278,70.0003,292.1704,266.3145,93.7696,7.0273e-05,7.46e-06,0.0,0 STARLINK-5894,1 55965U 23037BD  24217.52285230  .00000746  00000-0  70273-4 0  9998,2 55965  70.0003 292.1704 0002780 266.3145  93.7696 14.98327591 77611,6950.2,96.107,573.997,570.133,0.0
55965.0,STARLINK-5894,PAYLOAD,2024-08-04 14:09:02,14.98330739,0.000274,70.0004,292.002,267.8307,92.2538,6.8747e-05,7.27e-06,0.0,0 STARLINK-5894,1 55965U 23037BD  24217.58961042  .00000727  00000-0  68747-4 0  9998,2 55965  70.0004 292.0020 0002740 267.8307  92.2538 14.98330739 77284,6950.191,96.107,573.96,570.151,0.0
55965.0,STARLINK-5894,PAYLOAD,2024-08-04 22:09:42,14.98342772,0.0002764,70.0004,291.1604,268.9051,91.1792,-6.006e-05,-8.1e-06,0.0,0 STARLINK-5894,1 55965U 23037BD  24217.92340487 -.00000810  00000-0 -60060-4 0  9995,2 55965  70.0004 291.1604 0002764 268.9051  91.1792 14.98342772 77332,6950.153,96.106,573.939,570.097,0.0
55965.0,STARLINK-5894,PAYLOAD,2024-08-05 22:11:43,14.98332427,0.0003137,70.0004,288.6356,271.1346,88.9453,-4.3226e-06,-1.45e-06,0.0,0 STARLINK-5894,1 55965U 23037BD  24218.92480519 -.00000145  00000-0 -43226-5 0  9994,2 55965  70.0004 288.6356 0003137 271.1346  88.9453 14.98332427 77485,6950.185,96.107,574.231,569.87,0.0
55965.0,STARLINK-5894,PAYLOAD,2024-08-06 04:36:16,14.98324056,0.0002529,70.0,287.9603,276.6328,83.4543,2.496e-05,2.05e-06,0.0,0 STARLINK-5894,1 55965U 23037BD  24219.19185243  .00000205  00000-0  24960-4 0  9998,2 55965  70.0000 287.9603 0002529 276.6328  83.4543 14.98324056 77863,6950.211,96.107,573.834,570.319,0.0
55965.0,STARLINK-5894,PAYLOAD,2024-08-06 12:36:57,14.98318743,0.0003085,69.9991,287.1193,271.0838,88.9967,-0.00014086,-1.773e-05,0.0,0 STARLINK-5894,1 55965U 23037BD  24219.52566141 -.00001773  00000-0 -14086-3 0  9995,2 55965  69.9991 287.1193 0003085 271.0838  88.9967 14.98318743 77910,6950.228,96.108,574.237,569.949,0.0
55965.0,STARLINK-5894,PAYLOAD,2024-08-07 04:38:17,14.98329442,0.000317,69.9989,285.437,270.6092,89.4704,-1.0541e-05,-2.19e-06,0.0,0 STARLINK-5894,1 55965U 23037BD  24220.19325277 -.00000219  00000-0 -10541-4 0  9990,2 55965  69.9989 285.4370 0003170 270.6092  89.4704 14.98329442 78012,6950.195,96.107,574.263,569.856,0.0
55965.0,STARLINK-5894,PAYLOAD,2024-08-07 12:38:56,14.9833671,0.0002956,69.9991,284.5944,265.112,94.9702,5.6509e-05,5.81e-06,0.0,0 STARLINK-5894,1 55965U 23037BD  24220.52704617  .00000581  00000-0  56509-4 0  9990,2 55965  69.9991 284.5944 0002956 265.1120  94.9702 14.98336710 78064,6950.172,96.107,574.092,569.983,0.0
55965.0,STARLINK-5894,PAYLOAD,2024-08-08 12:40:57,14.98330181,0.0002896,69.9999,282.0704,270.1684,89.9144,0.00021698,2.497e-05,0.0,0 STARLINK-5894,1 55965U 23037BD  24221.52844589  .00002497  00000-0  21698-3 0  9992,2 55965  69.9999 282.0704 0002896 270.1684  89.9144 14.98330181 77871,6950.192,96.107,574.07,570.045,0.0
55965.0,STARLINK-5894,PAYLOAD,2024-08-08 14:17:05,14.98329257,0.0002841,70.0,281.902,269.0308,91.0526,0.00025838,2.991e-05,0.0,0 STARLINK-5894,1 55965U 23037BD  24221.59520561  .00002991  00000-0  25838-3 0  9999,2 55965  70.0000 281.9020 0002841 269.0308  91.0526 14.98329257 78226,6950.195,96.107,574.035,570.086,0.0
